COSMOS 1953             
1 19210U 88050A   24102.59083853  .00004843  00000+0  26481-3 0  9996
2 19210  82.5118 132.0034 0016212  47.4090 312.8506 15.13948164931784
SL-8 R/B                
1 19257U 88053B   24102.57932906  .00000294  00000+0  10561-3 0  9998
2 19257  74.0473 316.6822 0020907 308.4608 118.2852 14.38112978876356
COSMOS 1975             
1 19573U 88093A   24102.45561723  .00006164  00000+0  34533-3 0  9992
2 19573  82.5233  89.5948 0017860  90.1200 270.2077 15.13099901913429
SL-14 R/B               
1 19574U 88093B   24102.64289076  .00000525  00000+0  59437-4 0  9998
2 19574  82.5324 335.7490 0021147 178.6935 237.2342 14.84341946897581
SL-16 R/B               
1 19650U 88102B   24102.55623785 -.00000155  00000+0 -54271-4 0  9995
2 19650  70.9996 178.1345 0014765 343.0875  16.9753 14.15955460828206
INTERCOSMOS 24          
1 20261U 89080A   24102.51400905  .00001199  00000+0  34609-3 0  9993
2 20261  82.6108 197.4120 1196388 108.6795 264.7783 12.57852661579083
SL-14 R/B               
1 20262U 89080C   24102.55578825  .00000163  00000+0  46808-4 0  9990
2 20262  82.5894 260.6271 1233651 337.4742  17.6339 12.49627378573042
DELTA 1 R/B             
1 20323U 89089B   24102.58595327  .00000532  00000+0  14367-3 0  9990
2 20323  97.1116  47.6426 0070966 160.7727 199.6174 14.49379847794704
ARIANE 40 R/B           
1 20443U 90005H   24102.61835053  .00000382  00000+0  13812-3 0  9997
2 20443  98.3984 169.5674 0011316 135.0390 225.1716 14.38852329792521
DELTA 2 R/B(1)          
1 20453U 90008B   24102.58727661  .00022908  00000+0  90718-3 0  9990
2 20453  35.6189 239.5316 0210590 170.9466 189.5138 15.06488686819462
COSMOS 2058             
1 20465U 90010A   24102.47894793  .00004101  00000+0  30335-3 0  9999
2 20465  82.4905   9.0728 0014047 165.1337 195.0305 15.02870646837207
SL-14 R/B               
1 20466U 90010B   24102.51403708  .00000610  00000+0  73081-4 0  9994
2 20466  82.5058 201.5855 0021661  77.4701 282.8934 14.82337500825156
SL-14 R/B               
1 20511U 90018B   24102.61161111  .00000440  00000+0  53865-4 0  9992
2 20511  82.5223 154.1285 0015639 219.8632 140.1434 14.80947967819363
HST                     
1 20580U 90037B   24102.35624621  .00004836  00000+0  23087-3 0  9995
2 20580  28.4689  72.5541 0002524  28.1618 331.9111 15.16662236666877
SL-16 R/B               
1 20625U 90046B   24102.35340275  .00000302  00000+0  18081-3 0  9997
2 20625  71.0001 322.2374 0016302 282.2977  77.6320 14.14820703749755
COSMOS 2084             
1 20663U 90055A   24102.56206637  .00003465  00000+0  26915-3 0  9993
2 20663  62.7908 181.2877 0118489 113.7894 247.5680 14.97928237831588
SL-6 R/B(2)             
1 20666U 90055D   24102.38788784  .00002150  00000+0  18373-3 0  9993
2 20666  62.7829  95.6040 0095369 136.1238 224.7485 14.97512106833525
SL-8 R/B                
1 20775U 90078B   24102.58032950  .00016059  00000+0  64847-3 0  9998
2 20775  82.9155 143.4752 0482053 147.0393 216.1876 14.57628739706611
SL-8 R/B                
1 21088U 91006B   24102.56904189  .00000050  00000+0  34561-4 0  9993
2 21088  82.9427 328.6033 0022314 184.3906 238.6406 13.77328702668370
OKEAN-3                 
1 21397U 91039A   24102.57298778  .00003099  00000+0  26228-3 0  9999
2 21397  82.5160 288.8048 0016589 170.0889 190.0665 14.97610768760421
COSMOS 2151             
1 21422U 91042A   24102.53778624  .00002376  00000+0  21259-3 0  9997
2 21422  82.5022  33.7805 0011721 247.2933 112.7050 14.95419761779972
SL-14 R/B               
1 21423U 91042B   24102.59513356  .00000446  00000+0  54966-4 0  9991
2 21423  82.4938 153.3931 0017622  15.6634 344.5121 14.80677478749873
ERS-1                   
1 21574U 91050A   24102.57628601  .00000353  00000+0  12978-3 0  9998
2 21574  98.7763  92.7804 0033678 108.3840 252.1013 14.38449514715473
ARIANE 40 R/B           
1 21610U 91050F   24102.60205637  .00000417  00000+0  14064-3 0  9992
2 21610  98.2953 166.4275 0003719  44.9184 315.2306 14.41760948718504
INTERCOSMOS 25          
1 21819U 91086A   24102.26075523  .00001755  00000+0  34628-3 0  9997
2 21819  82.6121  10.5725 1502053 176.5789 184.7121 12.08490826412317
SL-8 R/B                
1 21876U 92008B   24102.64556690  .00000137  00000+0  12578-3 0  9999
2 21876  82.9259  66.0826 0033347 282.1139 251.9984 13.75812294613566
SL-8 R/B                
1 21938U 92020B   24102.59741650  .00000155  00000+0  14452-3 0  9991
2 21938  82.9281 311.4652 0030514  83.7843 328.8636 13.75399208605300
COSMOS 2219             
1 22219U 92076A   24102.55822133  .00000394  00000+0  23262-3 0  9991
2 22219  71.0625  35.1516 0018610 191.3841 168.6863 14.13845244619834
SL-16 R/B               
1 22220U 92076B   24102.61058956 -.00000119  00000+0 -35624-4 0  9997
2 22220  71.0007 216.5364 0010568  75.0238 296.3650 14.16642547623100
COSMOS 2221             
1 22236U 92080A   24102.57735684  .00002310  00000+0  22892-3 0  9999
2 22236  82.5078 224.3658 0015593  13.3373 346.8255 14.91329500676703
SL-16 R/B               
1 22285U 92093B   24102.53552057  .00000312  00000+0  18484-3 0  9996
2 22285  71.0241  27.5695 0006359 282.5743  77.4668 14.15242023614838
COSMOS 2228             
1 22286U 92094A   24102.60607772  .00002259  00000+0  22066-3 0  9994
2 22286  82.5220 182.1704 0021230 121.4536 238.8763 14.91801101671922
SL-16 R/B               
1 22566U 93016B   24102.58062180 -.00000148  00000+0 -51682-4 0  9999
2 22566  71.0067 239.1199 0012265 297.9812  62.0069 14.15117259603549
COSMOS 2242             
1 22626U 93024A   24102.55895027  .00002524  00000+0  24904-3 0  9990
2 22626  82.5232 210.9971 0019152 122.8487 237.4580 14.91475170676604
SL-16 R/B               
1 22803U 93059B   24102.58297630  .00000244  00000+0  14485-3 0  9994
2 22803  70.9916  40.9646 0017915 199.5817 160.4621 14.17010162580771
ARIANE 40 R/B           
1 22830U 93061H   24102.41548767  .00000274  00000+0  11834-3 0  9997
2 22830  98.5756 170.8201 0011021 178.8169 181.3042 14.32040570594273
COSMOS 2278             
1 23087U 94023A   24102.62175857  .00000001  00000+0  25133-4 0  9996
2 23087  71.0553 193.1881 0008832 357.0321   3.0748 14.14073452546251
SL-16 R/B               
1 23088U 94023B   24102.37332605  .00000385  00000+0  22428-3 0  9993
2 23088  70.9973  95.1358 0005419 272.9295  87.1208 14.14827670547455
SL-16 R/B               
1 23343U 94074B   24102.59214627  .00000568  00000+0  85700-4 0  9996
2 23343  97.7956 147.7311 0006011 339.3727 138.9188 14.77946135584222
SL-16 R/B               
1 23405U 94077B   24102.20158725 -.00000198  00000+0 -77229-4 0  9990
2 23405  70.9856  19.6788 0002327 204.0727 156.0287 14.15376739517532
ARIANE 40+ R/B          
1 23561U 95021B   24102.42532465  .00000364  00000+0  13274-3 0  9996
2 23561  98.5321 169.2679 0007936  73.1369 297.6169 14.38768103518949
SL-16 R/B               
1 23705U 95058B   24102.59989171  .00000353  00000+0  20544-3 0  9990
2 23705  71.0228 203.6007 0010458 104.5533 255.6751 14.15302298469214
SL-16 R/B               
1 24298U 96051B   24102.58528398 -.00000198  00000+0 -80695-4 0  9994
2 24298  70.8107 209.4168 0013931  81.9433 278.3266 14.12491222423219
ORBVIEW 2 (SEASTAR)     
1 24883U 97037A   24102.39550257  .00000444  00000+0  17388-3 0  9997
2 24883  98.7637 241.3039 0001461 338.3020  21.8102 14.34440275408460
SL-16 R/B               
1 25400U 98043G   24102.59125341  .00000102  00000+0  61920-4 0  9998
2 25400  98.7401  43.8261 0008891 234.5386 125.4964 14.25723072339642
SL-16 R/B               
1 25407U 98045B   24102.59458520  .00000085  00000+0  67351-4 0  9999
2 25407  71.0121 207.3423 0007537 350.5842   9.5138 14.15988035328410
ISS (ZARYA)             
1 25544U 98067A   24102.71652931  .00012921  00000+0  23320-3 0  9990
2 25544  51.6398 284.9797 0004742  58.5359  56.6079 15.50093814448232
CZ-4B R/B               
1 25732U 99025C   24102.59292356  .00000095  00000+0  67393-4 0  9999
2 25732  98.7596 148.6368 0037247 185.0709 291.0735 14.17936097289366
OKEAN-O                 
1 25860U 99039A   24102.14426362  .00000843  00000+0  12335-3 0  9999
2 25860  98.0437 154.6093 0001926  89.8089 270.3342 14.78243763331252
SL-16 R/B               
1 25861U 99039B   24102.56930351  .00000704  00000+0  10028-3 0  9997
2 25861  98.0967 148.0230 0015086 359.4285   0.6907 14.79929001333684
DELTA 2 R/B             
1 25876U 99041E   24102.52474374  .00001451  00000+0  27942-3 0  9993
2 25876  51.7612 198.3310 0519011  96.3918 269.6357 14.07945079264668
HELIOS 1B               
1 25977U 99064A   24102.56812408  .00000938  00000+0  11918-3 0  9993
2 25977  98.2545 331.9676 0001965 125.4219 234.7177 14.84151795581735
TERRA                   
1 25994U 99068A   24102.54413669  .00000579  00000+0  13101-3 0  9997
2 25994  98.0534 167.9796 0001889 170.9273 325.1779 14.59648937293329
SL-16 R/B               
1 26070U 00006B   24102.50073386 -.00000009  00000+0  19886-4 0  9997
2 26070  71.0003 123.5868 0016038 171.2199 188.9208 14.15619876249884
TITAN 4B R/B            
1 26474U 00047B   24102.60040898  .00003320  00000+0  26130-3 0  9990
2 26474  67.9929 189.3324 0044242 102.5621 258.0478 15.01376233287967
ENVISAT                 
1 27386U 02009A   24102.59839097  .00000182  00000+0  73100-4 0  9991
2 27386  98.2764  66.0259 0001314  82.9658 329.2813 14.38536418158936
IDEFIX & ARIANE 42P R/B 
1 27422U 02021B   24102.54340486  .00000400  00000+0  17133-3 0  9996
2 27422  98.5232  41.5810 0013307  80.8034 279.4654 14.30029174144348
AQUA                    
1 27424U 02022A   24102.60846279  .00001252  00000+0  27634-3 0  9990
2 27424  98.3250  51.7626 0001264  49.4309 123.5816 14.59069469166964
CZ-4B R/B               
1 27432U 02024C   24102.60102833  .00000060  00000+0  54348-4 0  9991
2 27432  98.9833 144.5782 0050053 198.3946 277.1356 14.14297819130690
